start=new Date('2021-12-02T00:00:00.000Z').valueOf();
sats=[{"OBJECT_ID":"2021-017AW","OBJECT_TYPE":"PAYLOAD","MEAN_ELEMENT_THEORY":"SGP4","APOAPSIS":"548.257","OBJECT_NAME":"STARLINK-2184","REV_AT_EPOCH":"4250","RCS_SIZE":"LARGE","FILE":"3229140","SEMIMAJOR_AXIS":"6925.354","DECAY_DATE":null,"PERIOD":"95.592","PERIAPSIS":"546.181","GP_ID":"190860929","INCLINATION":"53.0569","MEAN_MOTION":"15.06398121","NORAD_CAT_ID":"47766","EPHEMERIS_TYPE":"0","LAUNCH_DATE":"2021-03-04","TIME_SYSTEM":"UTC","CLASSIFICATION_TYPE":"U","CENTER_NAME":"EARTH","BSTAR":"-0.00002748700000","ARG_OF_PERICENTER":"75.1372","ECCENTRICITY":"0.00014990","TLE_LINE1":"1 47766U 21017AW  21335.51944728 -.00000691  00000-0 -27487-4 0  9995","COUNTRY_CODE":"US","SITE":"AFETR","RA_OF_ASC_NODE":"26.0078","ELEMENT_SET_NO":"999","MEAN_MOTION_DDOT":"0.0000000000000","MEAN_ANOMALY":"284.9782","MEAN_MOTION_DOT":"-0.00000691","EPOCH":"2021-12-01T12:28:00.244992","TLE_LINE2":"2 47766  53.0569  26.0078 0001499  75.1372 284.9782 15.06398121 42508","REF_FRAME":"TEME"},{"SITE":"AFETR","TLE_LINE1":"1 47767U 21017AX  21335.41211338  .00005239  00000-0  37074-3 0  9992","COUNTRY_CODE":"US","ELEMENT_SET_NO":"999","RA_OF_ASC_NODE":"11.4889","BSTAR":"0.00037074000000","ARG_OF_PERICENTER":"80.5943","ECCENTRICITY":"0.00014640","MEAN_MOTION_DOT":"0.00005239","REF_FRAME":"TEME","EPOCH":"2021-12-01T09:53:26.596032","TLE_LINE2":"2 47767  53.0570  11.4889 0001464  80.5943 279.5212 15.06361547 42763","MEAN_ANOMALY":"279.5212","MEAN_MOTION_DDOT":"0.0000000000000","RCS_SIZE":"LARGE","REV_AT_EPOCH":"4276","PERIOD":"95.595","FILE":"3229140","DECAY_DATE":null,"SEMIMAJOR_AXIS":"6925.466","GP_ID":"190860177","PERIAPSIS":"546.318","OBJECT_ID":"2021-017AX","OBJECT_NAME":"STARLINK-2185","OBJECT_TYPE":"PAYLOAD","APOAPSIS":"548.345","MEAN_ELEMENT_THEORY":"SGP4","EPHEMERIS_TYPE":"0","CENTER_NAME":"EARTH","LAUNCH_DATE":"2021-03-04","CLASSIFICATION_TYPE":"U","TIME_SYSTEM":"UTC","INCLINATION":"53.0570","NORAD_CAT_ID":"47767","MEAN_MOTION":"15.06361547"},{"DECAY_DATE":null,"FILE":"3229140","PERIOD":"95.592","SEMIMAJOR_AXIS":"6925.361","REV_AT_EPOCH":"4252","RCS_SIZE":"LARGE","PERIAPSIS":"546.081","GP_ID":"190860427","OBJECT_ID":"2021-017AY","APOAPSIS":"548.372","MEAN_ELEMENT_THEORY":"SGP4","OBJECT_TYPE":"PAYLOAD","OBJECT_NAME":"STARLINK-2189","EPHEMERIS_TYPE":"0","TIME_SYSTEM":"UTC","CLASSIFICATION_TYPE":"U","LAUNCH_DATE":"2021-03-04","CENTER_NAME":"EARTH","INCLINATION":"53.0556","NORAD_CAT_ID":"47768","MEAN_MOTION":"15.06395798","COUNTRY_CODE":"US","TLE_LINE1":"1 47768U 21017AY  21335.41529767  .00000682  00000-0  64710-4 0  9996","SITE":"AFETR","RA_OF_ASC_NODE":"26.4888","ELEMENT_SET_NO":"999","BSTAR":"0.00006471000000","ECCENTRICITY":"0.00016540","ARG_OF_PERICENTER":"63.2888","MEAN_MOTION_DOT":"0.00000682","TLE_LINE2":"2 47768  53.0556  26.4888 0001654  63.2888 296.8270 15.06395798 42525","EPOCH":"2021-12-01T09:58:01.718688","REF_FRAME":"TEME","MEAN_MOTION_DDOT":"0.0000000000000","MEAN_ANOMALY":"296.8270"},{"RCS_SIZE":"LARGE","REV_AT_EPOCH":"4237","DECAY_DATE":null,"FILE":"3229274","SEMIMAJOR_AXIS":"6925.404","PERIOD":"95.593","PERIAPSIS":"546.257","GP_ID":"190865060","OBJECT_ID":"2021-017AZ","OBJECT_TYPE":"PAYLOAD","MEAN_ELEMENT_THEORY":"SGP4","APOAPSIS":"548.281","OBJECT_NAME":"STARLINK-2192","EPHEMERIS_TYPE":"0","LAUNCH_DATE":"2021-03-04","CLASSIFICATION_TYPE":"U","TIME_SYSTEM":"UTC","CENTER_NAME":"EARTH","INCLINATION":"53.0547","MEAN_MOTION":"15.06381903","NORAD_CAT_ID":"47769","TLE_LINE1":"1 47769U 21017AZ  21335.52821108  .00002219  00000-0  16787-3 0  9991","COUNTRY_CODE":"US","SITE":"AFETR","RA_OF_ASC_NODE":"350.9611","ELEMENT_SET_NO":"999","BSTAR":"0.00016787000000","ECCENTRICITY":"0.00014610","ARG_OF_PERICENTER":"46.8276","MEAN_MOTION_DOT":"0.00002219","EPOCH":"2021-12-01T12:40:37.437312","TLE_LINE2":"2 47769  53.0547 350.9611 0001461  46.8276 313.2834 15.06381903 42375","REF_FRAME":"TEME","MEAN_MOTION_DDOT":"0.0000000000000","MEAN_ANOMALY":"313.2834"},{"REF_FRAME":"TEME","TLE_LINE2":"2 47770  53.0558   6.2558 0001562  59.2023 300.9119 15.05580192 42818","EPOCH":"2021-12-01T11:13:35.074848","MEAN_MOTION_DOT":"-0.00000675","MEAN_ANOMALY":"300.9119","MEAN_MOTION_DDOT":"0.0000000000000","RA_OF_ASC_NODE":"6.2558","ELEMENT_SET_NO":"999","SITE":"AFETR","TLE_LINE1":"1 47770U 21017BA  21335.46776707 -.00000675  00000-0 -27161-4 0  9995","COUNTRY_CODE":"US","ARG_OF_PERICENTER":"59.2023","ECCENTRICITY":"0.00015620","BSTAR":"-0.00002716100000","CENTER_NAME":"EARTH","LAUNCH_DATE":"2021-03-04","CLASSIFICATION_TYPE":"U","TIME_SYSTEM":"UTC","EPHEMERIS_TYPE":"0","NORAD_CAT_ID":"47770","MEAN_MOTION":"15.05580192","INCLINATION":"53.0558","GP_ID":"190861429","PERIAPSIS":"548.645","REV_AT_EPOCH":"4281","RCS_SIZE":"LARGE","FILE":"3229140","SEMIMAJOR_AXIS":"6927.862","DECAY_DATE":null,"PERIOD":"95.644","OBJECT_NAME":"STARLINK-2193","OBJECT_TYPE":"PAYLOAD","MEAN_ELEMENT_THEORY":"SGP4","APOAPSIS":"550.809","OBJECT_ID":"2021-017BA"},{"REF_FRAME":"TEME","TLE_LINE2":"2 47771  53.0571   6.7673 0001568  53.1187 306.9945 15.06394374 42805","EPOCH":"2021-12-01T08:21:12.225024","MEAN_MOTION_DOT":"-0.00001151","MEAN_ANOMALY":"306.9945","MEAN_MOTION_DDOT":"0.0000000000000","ELEMENT_SET_NO":"999","RA_OF_ASC_NODE":"6.7673","SITE":"AFETR","TLE_LINE1":"1 47771U 21017BB  21335.34805816 -.00001151  00000-0 -58398-4 0  9993","COUNTRY_CODE":"US","ARG_OF_PERICENTER":"53.1187","ECCENTRICITY":"0.00015680","BSTAR":"-0.00005839800000","CENTER_NAME":"EARTH","LAUNCH_DATE":"2021-03-04","CLASSIFICATION_TYPE":"U","TIME_SYSTEM":"UTC","EPHEMERIS_TYPE":"0","MEAN_MOTION":"15.06394374","NORAD_CAT_ID":"47771","INCLINATION":"53.0571","GP_ID":"190859678","PERIAPSIS":"546.145","RCS_SIZE":"LARGE","REV_AT_EPOCH":"4280","DECAY_DATE":null,"FILE":"3229140","SEMIMAJOR_AXIS":"6925.366","PERIOD":"95.592","OBJECT_NAME":"STARLINK-2194","OBJECT_TYPE":"PAYLOAD","MEAN_ELEMENT_THEORY":"SGP4","APOAPSIS":"548.317","OBJECT_ID":"2021-017BB"},{"BSTAR":"0.00018677000000","ARG_OF_PERICENTER":"59.6900","ECCENTRICITY":"0.00013370","COUNTRY_CODE":"US","TLE_LINE1":"1 47772U 21017BC  21335.53649612  .00002502  00000-0  18677-3 0  9999","SITE":"AFETR","RA_OF_ASC_NODE":"20.9204","ELEMENT_SET_NO":"999","MEAN_MOTION_DDOT":"0.0000000000000","MEAN_ANOMALY":"300.4221","MEAN_MOTION_DOT":"0.00002502","TLE_LINE2":"2 47772  53.0557  20.9204 0001337  59.6900 300.4221 15.06403266 42599","EPOCH":"2021-12-01T12:52:33.264768","REF_FRAME":"TEME","OBJECT_ID":"2021-017BC","APOAPSIS":"548.129","MEAN_ELEMENT_THEORY":"SGP4","OBJECT_TYPE":"PAYLOAD","OBJECT_NAME":"STARLINK-2195","FILE":"3229140","DECAY_DATE":null,"SEMIMAJOR_AXIS":"6925.339","PERIOD":"95.592","REV_AT_EPOCH":"4259","RCS_SIZE":"LARGE","PERIAPSIS":"546.278","GP_ID":"190859928","INCLINATION":"53.0557","NORAD_CAT_ID":"47772","MEAN_MOTION":"15.06403266","EPHEMERIS_TYPE":"0","TIME_SYSTEM":"UTC","CLASSIFICATION_TYPE":"U","LAUNCH_DATE":"2021-03-04","CENTER_NAME":"EARTH"},{"MEAN_ANOMALY":"302.0389","MEAN_MOTION_DDOT":"0.0000000000000","MEAN_MOTION_DOT":"0.00000153","REF_FRAME":"TEME","TLE_LINE2":"2 47773  53.0560  20.9423 0001360  58.0732 302.0389 15.06390920 42583","EPOCH":"2021-12-01T12:47:15.069120","BSTAR":"0.00002914300000","ARG_OF_PERICENTER":"58.0732","ECCENTRICITY":"0.00013600","SITE":"AFETR","TLE_LINE1":"1 47773U 21017BD  21335.53281330  .00000153  00000-0  29143-4 0  9990","COUNTRY_CODE":"US","RA_OF_ASC_NODE":"20.9423","ELEMENT_SET_NO":"999","INCLINATION":"53.0560","NORAD_CAT_ID":"47773","MEAN_MOTION":"15.06390920","EPHEMERIS_TYPE":"0","CENTER_NAME":"EARTH","LAUNCH_DATE":"2021-03-04","CLASSIFICATION_TYPE":"U","TIME_SYSTEM":"UTC","OBJECT_ID":"2021-017BD","OBJECT_NAME":"STARLINK-2196","OBJECT_TYPE":"PAYLOAD","APOAPSIS":"548.183","MEAN_ELEMENT_THEORY":"SGP4","REV_AT_EPOCH":"4258","RCS_SIZE":"LARGE","PERIOD":"95.593","FILE":"3229140","DECAY_DATE":null,"SEMIMAJOR_AXIS":"6925.376","GP_ID":"190860679","PERIAPSIS":"546.300"},{"BSTAR":"0.00002353600000","ARG_OF_PERICENTER":"62.2102","ECCENTRICITY":"0.00012580","SITE":"AFETR","COUNTRY_CODE":"US","TLE_LINE1":"1 47774U 21017BE  21335.39643280  .00000069  00000-0  23536-4 0  9997","RA_OF_ASC_NODE":"21.5505","ELEMENT_SET_NO":"999","MEAN_ANOMALY":"297.9014","MEAN_MOTION_DDOT":"0.0000000000000","MEAN_MOTION_DOT":"0.00000069","REF_FRAME":"TEME","TLE_LINE2":"2 47774  53.0565  21.5505 0001258  62.2102 297.9014 15.06392306 42577","EPOCH":"2021-12-01T09:30:51.793920","OBJECT_ID":"2021-017BE","OBJECT_NAME":"STARLINK-2197","APOAPSIS":"548.108","MEAN_ELEMENT_THEORY":"SGP4","OBJECT_TYPE":"PAYLOAD","FILE":"3229140","DECAY_DATE":null,"SEMIMAJOR_AXIS":"6925.372","PERIOD":"95.593","REV_AT_EPOCH":"4257","RCS_SIZE":"LARGE","GP_ID":"190860930","PERIAPSIS":"546.366","INCLINATION":"53.0565","NORAD_CAT_ID":"47774","MEAN_MOTION":"15.06392306","EPHEMERIS_TYPE":"0","CENTER_NAME":"EARTH","TIME_SYSTEM":"UTC","CLASSIFICATION_TYPE":"U","LAUNCH_DATE":"2021-03-04"},{"ARG_OF_PERICENTER":"68.9512","ECCENTRICITY":"0.00012380","BSTAR":"0.00001718000000","ELEMENT_SET_NO":"999","RA_OF_ASC_NODE":"20.9248","SITE":"AFETR","TLE_LINE1":"1 47775U 21017BF  21335.54018354 -.00000026  00000-0  17180-4 0  9995","COUNTRY_CODE":"US","MEAN_ANOMALY":"291.1609","MEAN_MOTION_DDOT":"0.0000000000000","REF_FRAME":"TEME","TLE_LINE2":"2 47775  53.0545  20.9248 0001238  68.9512 291.1609 15.06392249 41963","EPOCH":"2021-12-01T12:57:51.857856","MEAN_MOTION_DOT":"-0.00000026","OBJECT_NAME":"STARLINK-2198","OBJECT_TYPE":"PAYLOAD","MEAN_ELEMENT_THEORY":"SGP4","APOAPSIS":"548.095","OBJECT_ID":"2021-017BF","GP_ID":"190864822","PERIAPSIS":"546.380","REV_AT_EPOCH":"4196","RCS_SIZE":"LARGE","FILE":"3229261","DECAY_DATE":null,"SEMIMAJOR_AXIS":"6925.372","PERIOD":"95.593","MEAN_MOTION":"15.06392249","NORAD_CAT_ID":"47775","INCLINATION":"53.0545","CENTER_NAME":"EARTH","LAUNCH_DATE":"2021-03-04","TIME_SYSTEM":"UTC","CLASSIFICATION_TYPE":"U","EPHEMERIS_TYPE":"0"}];
